KUIPER-00603            
1 69287U 26118W   26159.25004630  .00064325  00000+0  17269-2 0  9999
2 69287  51.8670  96.4859 0005539 127.0131  19.0840 15.37321872  2473
KUIPER-00605            
1 69288U 26118X   26159.25004630  .00063728  00000+0  17356-2 0  9993
2 69288  51.8659  96.5189 0007629 132.2115 357.7911 15.36868035  2310
KUIPER-00606            
1 69289U 26118Y   26159.25004630  .00064772  00000+0  17258-2 0  9995
2 69289  51.8694  96.4676 0004739 118.8528  35.2001 15.37556799  2160
KUIPER-00607            
1 69290U 26118Z   26159.25004630  .00063342  00000+0  17049-2 0  9997
2 69290  51.8679  96.4911 0006292 125.5055  17.8257 15.37244681  2122
KUIPER-00608            
1 69291U 26118AA  26159.25004630  .00083261  00000+0  23239-2 0  9998
2 69291  51.8599  96.5572 0009607 145.5020 325.5102 15.35964280  2091
KUIPER-00610            
1 69292U 26118AB  26159.25004630  .00064118  00000+0  16790-2 0  9993
2 69292  51.8721  96.4258 0002863 100.4540  71.2600 15.38102132  2016
KUIPER-00613            
1 69293U 26118AC  26159.25004630  .00061476  00000+0  17615-2 0  9995
2 69293  51.8623  96.5843 0010227 155.3210 302.5037 15.35279209  1307
KUIPER-00618            
1 69294U 26118AD  26159.25004630  .00063370  00000+0  16428-2 0  9992
2 69294  51.8720  96.3976 0002138  60.0263 124.9619 15.38418675  1344
KUIPER-00620            
1 69295U 26118AE  26159.25004630  .00064042  00000+0  16724-2 0  9999
2 69295  51.8716  96.4215 0003087  88.8415  85.7687 15.38187475  2552
STARLINK-37501          
1 69296U 26119A   26159.25004630 -.00154243  00000+0 -84925-3 0  9995
2 69296  97.2835 184.5762 0000813 124.3959  50.9005 15.80016611  2455
STARLINK-37496          
1 69297U 26119B   26159.25004630 -.00242301  00000+0 -13421-2 0  9991
2 69297  97.2838 184.5758 0000603 145.5612  26.9648 15.80113441  2457
STARLINK-37519          
1 69298U 26119C   26159.25004630  .00040607  00000+0  21196-3 0  9994
2 69298  97.2838 184.5820 0001297  72.4811 115.5091 15.80794564  2455
STARLINK-37455          
1 69299U 26119D   26159.25004630 -.00163991  00000+0 -90371-3 0  9990
2 69299  97.2836 184.5798 0001551  74.5985 107.6187 15.80020474  2456
STARLINK-37456          
1 69300U 26119E   26159.25004630 -.00137366  00000+0 -72475-3 0  9995
2 69300  97.2833 184.5844 0000732  95.3903  97.0449 15.80906950  2454
STARLINK-37630          
1 69301U 26119F   26159.25004630 -.00144108  00000+0 -76118-3 0  9996
2 69301  97.2836 184.5849 0000722 118.2116  76.8140 15.80900186  2619
STARLINK-37804          
1 69302U 26119G   26159.25004630 -.00008410  00000+0 -43180-4 0  9996
2 69302  97.2836 184.5855 0001045 150.5405  46.2089 15.80830134  2614
STARLINK-37730          
1 69303U 26119H   26159.25004630 -.00054483  00000+0 -28478-3 0  9990
2 69303  97.2836 184.5894 0000512  69.0380 136.1164 15.80870605  2612
STARLINK-37731          
1 69304U 26119J   26159.25004630 -.00013360  00000+0 -69060-4 0  9993
2 69304  97.2834 184.5895 0001383 102.0538 103.8838 15.80832636  2613
STARLINK-37734          
1 69305U 26119K   26159.25004630 -.00035149  00000+0 -18319-3 0  9993
2 69305  97.2834 184.5920 0000634 116.4228  94.7147 15.80854179  2613
STARLINK-37701          
1 69306U 26119L   26159.25004630 -.00027648  00000+0 -14381-3 0  9994
2 69306  97.2835 184.5922 0000583  94.5160 118.1538 15.80854240  2615
STARLINK-37732          
1 69307U 26119M   26159.25004630 -.00032671  00000+0 -17022-3 0  9992
2 69307  97.2836 184.5939 0001410  96.0780 118.9799 15.80846620  2610
STARLINK-37689          
1 69308U 26119N   26159.25004630 -.00004567  00000+0 -23095-4 0  9994
2 69308  97.2834 184.5961 0000731 101.1165 120.6734 15.80837719  2612
STARLINK-37619          
1 69309U 26119P   26159.25004630  .00028598  00000+0  14949-3 0  9990
2 69309  97.2834 184.5979 0001287  86.5521 138.2284 15.80824394  2611
STARLINK-37794          
1 69310U 26119Q   26159.25004630 -.00160006  00000+0 -84658-3 0  9999
2 69310  97.2830 184.6034 0000481 117.2761 120.1832 15.80905608  2612
STARLINK-37795          
1 69311U 26119R   26159.25004630 -.00160155  00000+0 -84847-3 0  9995
2 69311  97.2830 184.6031 0001384  91.8008 147.7666 15.80875135  2615
STARLINK-37790          
1 69312U 26119S   26159.25004630 -.00179593  00000+0 -95261-3 0  9994
2 69312  97.2830 184.6056 0001076  99.3006 145.6031 15.80899823  2615
STARLINK-37676          
1 69313U 26119T   26159.25004630 -.00550504  00000+0 -30068-2 0  9993
2 69313  97.2832 184.6111 0001049  86.3589 169.8966 15.81186663  2619
STARLINK-37617          
1 69314U 26119U   26159.25004630 -.01086263  00000+0 -62003-2 0  9995
2 69314  97.2832 184.6126 0001931  86.6774 174.3290 15.81571111  2612
STARLINK-37627          
1 69315U 26119V   26159.25004630 -.00699019  00000+0 -38721-2 0  9994
2 69315  97.2831 184.6135 0000976 104.4188 158.5639 15.81248122  2612
STARLINK-37738          
1 69316U 26119W   26159.25004630  .00020457  00000+0  10718-3 0  9994
2 69316  97.2832 184.6086 0001654  88.6045 161.7750 15.80837717  2611
