OBJECT_NAME,OBJECT_ID,EPOCH,MEAN_MOTION,ECCENTRICITY,INCLINATION,RA_OF_ASC_NODE,ARG_OF_PERICENTER,MEAN_ANOMALY,EPHEMERIS_TYPE,CLASSIFICATION_TYPE,NORAD_CAT_ID,ELEMENT_SET_NO,REV_AT_EPOCH,BSTAR,MEAN_MOTION_DOT,MEAN_MOTION_DDOT
KUIPER-00603,2026-118W,2026-06-08T06:00:04.000320,15.37321872,.00055391,51.8670,96.4859,127.0131,19.0840,0,U,69287,999,247,.17269015E-2,.64325E-3,0
KUIPER-00605,2026-118X,2026-06-08T06:00:04.000320,15.36868035,.00076293,51.8659,96.5189,132.2115,357.7911,0,U,69288,999,231,.17356368E-2,.63728E-3,0
KUIPER-00606,2026-118Y,2026-06-08T06:00:04.000320,15.37556799,.00047397,51.8694,96.4676,118.8528,35.2001,0,U,69289,999,216,.17257805E-2,.64772E-3,0
KUIPER-00607,2026-118Z,2026-06-08T06:00:04.000320,15.37244681,.00062923,51.8679,96.4911,125.5055,17.8257,0,U,69290,999,212,.17049018E-2,.63342E-3,0
KUIPER-00608,2026-118AA,2026-06-08T06:00:04.000320,15.35964280,.00096073,51.8599,96.5572,145.5020,325.5102,0,U,69291,999,209,.23239283E-2,.83261E-3,0
KUIPER-00610,2026-118AB,2026-06-08T06:00:04.000320,15.38102132,.00028638,51.8721,96.4258,100.4540,71.2600,0,U,69292,999,201,.16789815E-2,.64118E-3,0
KUIPER-00613,2026-118AC,2026-06-08T06:00:04.000320,15.35279209,.00102272,51.8623,96.5843,155.3210,302.5037,0,U,69293,999,130,.17614691E-2,.61476E-3,0
KUIPER-00618,2026-118AD,2026-06-08T06:00:04.000320,15.38418675,.00021383,51.8720,96.3976,60.0263,124.9619,0,U,69294,999,134,.1642756E-2,.6337E-3,0
KUIPER-00620,2026-118AE,2026-06-08T06:00:04.000320,15.38187475,.0003087,51.8716,96.4215,88.8415,85.7687,0,U,69295,999,255,.16723555E-2,.64042E-3,0
STARLINK-37501,2026-119A,2026-06-08T06:00:04.000320,15.80016611,.00008139,97.2835,184.5762,124.3959,50.9005,0,U,69296,999,245,-.8492451E-3,-.154243E-2,0
STARLINK-37496,2026-119B,2026-06-08T06:00:04.000320,15.80113441,.00006033,97.2838,184.5758,145.5612,26.9648,0,U,69297,999,245,-.13421111E-2,-.242301E-2,0
STARLINK-37519,2026-119C,2026-06-08T06:00:04.000320,15.80794564,.00012974,97.2838,184.5820,72.4811,115.5091,0,U,69298,999,245,.2119569E-3,.40607E-3,0
STARLINK-37455,2026-119D,2026-06-08T06:00:04.000320,15.80020474,.00015518,97.2836,184.5798,74.5985,107.6187,0,U,69299,999,245,-.90371343E-3,-.163991E-2,0
STARLINK-37456,2026-119E,2026-06-08T06:00:04.000320,15.80906950,.00007321,97.2833,184.5844,95.3903,97.0449,0,U,69300,999,245,-.72475188E-3,-.137366E-2,0
STARLINK-37630,2026-119F,2026-06-08T06:00:04.000320,15.80900186,.00007221,97.2836,184.5849,118.2116,76.8140,0,U,69301,999,261,-.76118192E-3,-.144108E-2,0
STARLINK-37804,2026-119G,2026-06-08T06:00:04.000320,15.80830134,.00010452,97.2836,184.5855,150.5405,46.2089,0,U,69302,999,261,-.43180364E-4,-.841E-4,0
STARLINK-37730,2026-119H,2026-06-08T06:00:04.000320,15.80870605,.00005122,97.2836,184.5894,69.0380,136.1164,0,U,69303,999,261,-.28477808E-3,-.54483E-3,0
STARLINK-37731,2026-119J,2026-06-08T06:00:04.000320,15.80832636,.0001383,97.2834,184.5895,102.0538,103.8838,0,U,69304,999,261,-.69060085E-4,-.1336E-3,0
STARLINK-37734,2026-119K,2026-06-08T06:00:04.000320,15.80854179,.00006347,97.2834,184.5920,116.4228,94.7147,0,U,69305,999,261,-.18318764E-3,-.35149E-3,0
STARLINK-37701,2026-119L,2026-06-08T06:00:04.000320,15.80854240,.00005837,97.2835,184.5922,94.5160,118.1538,0,U,69306,999,261,-.14381156E-3,-.27648E-3,0
STARLINK-37732,2026-119M,2026-06-08T06:00:04.000320,15.80846620,.00014102,97.2836,184.5939,96.0780,118.9799,0,U,69307,999,261,-.17021793E-3,-.32671E-3,0
STARLINK-37689,2026-119N,2026-06-08T06:00:04.000320,15.80837719,.00007319,97.2834,184.5961,101.1165,120.6734,0,U,69308,999,261,-.23094508E-4,-.4567E-4,0
STARLINK-37619,2026-119P,2026-06-08T06:00:04.000320,15.80824394,.00012872,97.2834,184.5979,86.5521,138.2284,0,U,69309,999,261,.14949386E-3,.28598E-3,0
STARLINK-37794,2026-119Q,2026-06-08T06:00:04.000320,15.80905608,.00004812,97.2830,184.6034,117.2761,120.1832,0,U,69310,999,261,-.8465827E-3,-.160006E-2,0
STARLINK-37795,2026-119R,2026-06-08T06:00:04.000320,15.80875135,.00013847,97.2830,184.6031,91.8008,147.7666,0,U,69311,999,261,-.84846873E-3,-.160155E-2,0
STARLINK-37790,2026-119S,2026-06-08T06:00:04.000320,15.80899823,.00010761,97.2830,184.6056,99.3006,145.6031,0,U,69312,999,261,-.95260767E-3,-.179593E-2,0
STARLINK-37676,2026-119T,2026-06-08T06:00:04.000320,15.81186663,.00010496,97.2832,184.6111,86.3589,169.8966,0,U,69313,999,261,-.30068239E-2,-.550504E-2,0
STARLINK-37617,2026-119U,2026-06-08T06:00:04.000320,15.81571111,.00019314,97.2832,184.6126,86.6774,174.3290,0,U,69314,999,261,-.62002971E-2,-.1086263E-1,0
STARLINK-37627,2026-119V,2026-06-08T06:00:04.000320,15.81248122,.00009763,97.2831,184.6135,104.4188,158.5639,0,U,69315,999,261,-.38721432E-2,-.699019E-2,0
STARLINK-37738,2026-119W,2026-06-08T06:00:04.000320,15.80837717,.00016548,97.2832,184.6086,88.6045,161.7750,0,U,69316,999,261,.10718079E-3,.20457E-3,0
